CCSDS_OMM_VERS = 2.0
CREATION_DATE  = 
ORIGINATOR     = 

OBJECT_NAME    = STARLINK-36766
OBJECT_ID      = 2026-042A
CENTER_NAME    = EARTH
REF_FRAME      = TEME
TIME_SYSTEM    = UTC
MEAN_ELEMENT_THEORY = SGP/SGP4

EPOCH          = 2026-03-27T11:03:41.398848
MEAN_MOTION    = 15.80931284
ECCENTRICITY   = .00011457
INCLINATION    = 53.1583
RA_OF_ASC_NODE = 105.7161
ARG_OF_PERICENTER = 109.4250
MEAN_ANOMALY   = 250.6897

EPHEMERIS_TYPE = 0
CLASSIFICATION_TYPE = U
NORAD_CAT_ID   = 68069
ELEMENT_SET_NO = 999
REV_AT_EPOCH   = 489
BSTAR          = .98716064E-3
MEAN_MOTION_DOT = .199229E-2
MEAN_MOTION_DDOT = 0

CCSDS_OMM_VERS = 2.0
CREATION_DATE  = 
ORIGINATOR     = 

OBJECT_NAME    = STARLINK-36823
OBJECT_ID      = 2026-042B
CENTER_NAME    = EARTH
REF_FRAME      = TEME
TIME_SYSTEM    = UTC
MEAN_ELEMENT_THEORY = SGP/SGP4

EPOCH          = 2026-03-27T09:31:34.234464
MEAN_MOTION    = 15.80929180
ECCENTRICITY   = .00018432
INCLINATION    = 53.1577
RA_OF_ASC_NODE = 106.0273
ARG_OF_PERICENTER = 131.6587
MEAN_ANOMALY   = 228.4594

EPHEMERIS_TYPE = 0
CLASSIFICATION_TYPE = U
NORAD_CAT_ID   = 68070
ELEMENT_SET_NO = 999
REV_AT_EPOCH   = 488
BSTAR          = .78670658E-3
MEAN_MOTION_DOT = .157854E-2
MEAN_MOTION_DDOT = 0

CCSDS_OMM_VERS = 2.0
CREATION_DATE  = 
ORIGINATOR     = 

OBJECT_NAME    = STARLINK-36970
OBJECT_ID      = 2026-042C
CENTER_NAME    = EARTH
REF_FRAME      = TEME
TIME_SYSTEM    = UTC
MEAN_ELEMENT_THEORY = SGP/SGP4

EPOCH          = 2026-03-27T14:00:03.000384
MEAN_MOTION    = 15.75240327
ECCENTRICITY   = .00010818
INCLINATION    = 53.1595
RA_OF_ASC_NODE = 105.1763
ARG_OF_PERICENTER = 86.4769
MEAN_ANOMALY   = 214.5913

EPHEMERIS_TYPE = 0
CLASSIFICATION_TYPE = U
NORAD_CAT_ID   = 68071
ELEMENT_SET_NO = 999
REV_AT_EPOCH   = 492
BSTAR          = -.22585626E-3
MEAN_MOTION_DOT = -.35118E-3
MEAN_MOTION_DDOT = 0

CCSDS_OMM_VERS = 2.0
CREATION_DATE  = 
ORIGINATOR     = 

OBJECT_NAME    = STARLINK-36972
OBJECT_ID      = 2026-042D
CENTER_NAME    = EARTH
REF_FRAME      = TEME
TIME_SYSTEM    = UTC
MEAN_ELEMENT_THEORY = SGP/SGP4

EPOCH          = 2026-03-27T07:59:27.341376
MEAN_MOTION    = 15.80964335
ECCENTRICITY   = .00010354
INCLINATION    = 53.1575
RA_OF_ASC_NODE = 106.3398
ARG_OF_PERICENTER = 25.5387
MEAN_ANOMALY   = 334.5687

EPHEMERIS_TYPE = 0
CLASSIFICATION_TYPE = U
NORAD_CAT_ID   = 68072
ELEMENT_SET_NO = 999
REV_AT_EPOCH   = 487
BSTAR          = .12218646E-2
MEAN_MOTION_DOT = .248573E-2
MEAN_MOTION_DDOT = 0

CCSDS_OMM_VERS = 2.0
CREATION_DATE  = 
ORIGINATOR     = 

OBJECT_NAME    = STARLINK-37074
OBJECT_ID      = 2026-042E
CENTER_NAME    = EARTH
REF_FRAME      = TEME
TIME_SYSTEM    = UTC
MEAN_ELEMENT_THEORY = SGP/SGP4

EPOCH          = 2026-03-27T14:00:03.000384
MEAN_MOTION    = 15.78040533
ECCENTRICITY   = .00009446
INCLINATION    = 53.1584
RA_OF_ASC_NODE = 105.0743
ARG_OF_PERICENTER = 81.6484
MEAN_ANOMALY   = 269.4531

EPHEMERIS_TYPE = 0
CLASSIFICATION_TYPE = U
NORAD_CAT_ID   = 68073
ELEMENT_SET_NO = 999
REV_AT_EPOCH   = 492
BSTAR          = -.12738377E-1
MEAN_MOTION_DOT = -.1922792E-1
MEAN_MOTION_DDOT = 0

CCSDS_OMM_VERS = 2.0
CREATION_DATE  = 
ORIGINATOR     = 

OBJECT_NAME    = STARLINK-37045
OBJECT_ID      = 2026-042F
CENTER_NAME    = EARTH
REF_FRAME      = TEME
TIME_SYSTEM    = UTC
MEAN_ELEMENT_THEORY = SGP/SGP4

EPOCH          = 2026-03-27T11:31:55.293312
MEAN_MOTION    = 15.75302623
ECCENTRICITY   = .00027703
INCLINATION    = 53.1596
RA_OF_ASC_NODE = 105.8489
ARG_OF_PERICENTER = 39.0243
MEAN_ANOMALY   = 321.0976

EPHEMERIS_TYPE = 0
CLASSIFICATION_TYPE = U
NORAD_CAT_ID   = 68074
ELEMENT_SET_NO = 999
REV_AT_EPOCH   = 489
BSTAR          = .47576942E-3
MEAN_MOTION_DOT = .73136E-3
MEAN_MOTION_DDOT = 0

CCSDS_OMM_VERS = 2.0
CREATION_DATE  = 
ORIGINATOR     = 

OBJECT_NAME    = STARLINK-37026
OBJECT_ID      = 2026-042G
CENTER_NAME    = EARTH
REF_FRAME      = TEME
TIME_SYSTEM    = UTC
MEAN_ELEMENT_THEORY = SGP/SGP4

EPOCH          = 2026-03-27T10:14:05.457984
MEAN_MOTION    = 15.75288960
ECCENTRICITY   = .00015864
INCLINATION    = 53.1570
RA_OF_ASC_NODE = 106.2224
ARG_OF_PERICENTER = 91.9809
MEAN_ANOMALY   = 268.1393

EPHEMERIS_TYPE = 0
CLASSIFICATION_TYPE = U
NORAD_CAT_ID   = 68075
ELEMENT_SET_NO = 999
REV_AT_EPOCH   = 488
BSTAR          = .14257373E-2
MEAN_MOTION_DOT = .22429E-2
MEAN_MOTION_DDOT = 0

CCSDS_OMM_VERS = 2.0
CREATION_DATE  = 
ORIGINATOR     = 

OBJECT_NAME    = STARLINK-37023
OBJECT_ID      = 2026-042H
CENTER_NAME    = EARTH
REF_FRAME      = TEME
TIME_SYSTEM    = UTC
MEAN_ELEMENT_THEORY = SGP/SGP4

EPOCH          = 2026-03-27T13:09:20.346624
MEAN_MOTION    = 15.75258096
ECCENTRICITY   = .00015701
INCLINATION    = 53.1576
RA_OF_ASC_NODE = 105.5565
ARG_OF_PERICENTER = 133.5167
MEAN_ANOMALY   = 226.5984

EPHEMERIS_TYPE = 0
CLASSIFICATION_TYPE = U
NORAD_CAT_ID   = 68076
ELEMENT_SET_NO = 999
REV_AT_EPOCH   = 490
BSTAR          = .18649629E-2
MEAN_MOTION_DOT = .295703E-2
MEAN_MOTION_DDOT = 0

CCSDS_OMM_VERS = 2.0
CREATION_DATE  = 
ORIGINATOR     = 

OBJECT_NAME    = STARLINK-37036
OBJECT_ID      = 2026-042J
CENTER_NAME    = EARTH
REF_FRAME      = TEME
TIME_SYSTEM    = UTC
MEAN_ELEMENT_THEORY = SGP/SGP4

EPOCH          = 2026-03-27T11:38:27.099168
MEAN_MOTION    = 15.75262011
ECCENTRICITY   = .00011164
INCLINATION    = 53.1575
RA_OF_ASC_NODE = 105.8738
ARG_OF_PERICENTER = 70.7523
MEAN_ANOMALY   = 289.3618

EPHEMERIS_TYPE = 0
CLASSIFICATION_TYPE = U
NORAD_CAT_ID   = 68077
ELEMENT_SET_NO = 999
REV_AT_EPOCH   = 489
BSTAR          = .70954084E-3
MEAN_MOTION_DOT = .109654E-2
MEAN_MOTION_DDOT = 0

CCSDS_OMM_VERS = 2.0
CREATION_DATE  = 
ORIGINATOR     = 

OBJECT_NAME    = STARLINK-36973
OBJECT_ID      = 2026-042K
CENTER_NAME    = EARTH
REF_FRAME      = TEME
TIME_SYSTEM    = UTC
MEAN_ELEMENT_THEORY = SGP/SGP4

EPOCH          = 2026-03-27T14:00:03.000384
MEAN_MOTION    = 15.75236612
ECCENTRICITY   = .00012151
INCLINATION    = 53.1590
RA_OF_ASC_NODE = 105.0697
ARG_OF_PERICENTER = 82.4724
MEAN_ANOMALY   = 270.0945

EPHEMERIS_TYPE = 0
CLASSIFICATION_TYPE = U
NORAD_CAT_ID   = 68078
ELEMENT_SET_NO = 999
REV_AT_EPOCH   = 492
BSTAR          = -.27182189E-4
MEAN_MOTION_DOT = -.4803E-4
MEAN_MOTION_DDOT = 0

CCSDS_OMM_VERS = 2.0
CREATION_DATE  = 
ORIGINATOR     = 

OBJECT_NAME    = STARLINK-37063
OBJECT_ID      = 2026-042L
CENTER_NAME    = EARTH
REF_FRAME      = TEME
TIME_SYSTEM    = UTC
MEAN_ELEMENT_THEORY = SGP/SGP4

EPOCH          = 2026-03-27T12:24:58.109472
MEAN_MOTION    = 15.81154742
ECCENTRICITY   = .00009014
INCLINATION    = 53.1571
RA_OF_ASC_NODE = 105.3530
ARG_OF_PERICENTER = 55.3485
MEAN_ANOMALY   = 304.7623

EPHEMERIS_TYPE = 0
CLASSIFICATION_TYPE = U
NORAD_CAT_ID   = 68079
ELEMENT_SET_NO = 999
REV_AT_EPOCH   = 490
BSTAR          = .24492226E-2
MEAN_MOTION_DOT = .519677E-2
MEAN_MOTION_DDOT = 0

CCSDS_OMM_VERS = 2.0
CREATION_DATE  = 
ORIGINATOR     = 

OBJECT_NAME    = STARLINK-37051
OBJECT_ID      = 2026-042M
CENTER_NAME    = EARTH
REF_FRAME      = TEME
TIME_SYSTEM    = UTC
MEAN_ELEMENT_THEORY = SGP/SGP4

EPOCH          = 2026-03-27T14:00:03.000384
MEAN_MOTION    = 15.75246824
ECCENTRICITY   = .0000856
INCLINATION    = 53.1594
RA_OF_ASC_NODE = 105.1228
ARG_OF_PERICENTER = 94.3490
MEAN_ANOMALY   = 232.4681

EPHEMERIS_TYPE = 0
CLASSIFICATION_TYPE = U
NORAD_CAT_ID   = 68080
ELEMENT_SET_NO = 999
REV_AT_EPOCH   = 492
BSTAR          = -.1394406E-3
MEAN_MOTION_DOT = -.21964E-3
MEAN_MOTION_DDOT = 0

