STARLINK-36766          
1 68069U 26042A   26086.46089582  .00199229  00000+0  98716-3 0  9992
2 68069  53.1583 105.7161 0001145 109.4250 250.6897 15.80931284  4898
STARLINK-36823          
1 68070U 26042B   26086.39692401  .00157854  00000+0  78671-3 0  9992
2 68070  53.1577 106.0273 0001843 131.6587 228.4594 15.80929180  4884
STARLINK-36970          
1 68071U 26042C   26086.58336806 -.00035118  00000+0 -22586-3 0  9992
2 68071  53.1595 105.1763 0001081  86.4769 214.5913 15.75240327  4921
STARLINK-36972          
1 68072U 26042D   26086.33295534  .00248573  00000+0  12219-2 0  9998
2 68072  53.1575 106.3398 0001035  25.5387 334.5687 15.80964335  4879
STARLINK-37074          
1 68073U 26042E   26086.58336806 -.01922792  00000+0 -12738-1 0  9994
2 68073  53.1584 105.0743 0000944  81.6484 269.4531 15.78040533  4921
STARLINK-37045          
1 68074U 26042F   26086.48050108  .00073136  00000+0  47577-3 0  9999
2 68074  53.1596 105.8489 0002770  39.0243 321.0976 15.75302623  4891
STARLINK-37026          
1 68075U 26042G   26086.42645206  .00224290  00000+0  14257-2 0  9990
2 68075  53.1570 106.2224 0001586  91.9809 268.1393 15.75288960  4885
STARLINK-37023          
1 68076U 26042H   26086.54815216  .00295703  00000+0  18650-2 0  9992
2 68076  53.1576 105.5565 0001570 133.5167 226.5984 15.75258096  4909
STARLINK-37036          
1 68077U 26042J   26086.48503587  .00109654  00000+0  70954-3 0  9996
2 68077  53.1575 105.8738 0001116  70.7523 289.3618 15.75262011  4899
STARLINK-36973          
1 68078U 26042K   26086.58336806 -.00004803  00000+0 -27182-4 0  9994
2 68078  53.1590 105.0697 0001215  82.4724 270.0945 15.75236612  4928
STARLINK-37063          
1 68079U 26042L   26086.51733923  .00519677  00000+0  24492-2 0  9996
2 68079  53.1571 105.3530 0000901  55.3485 304.7623 15.81154742  4907
STARLINK-37051          
1 68080U 26042M   26086.58336806 -.00021964  00000+0 -13944-3 0  9994
2 68080  53.1594 105.1228 0000856  94.3490 232.4681 15.75246824  4923
